{
  "fetched_at": "2026-05-08T01:58:00.603750+00:00",
  "satellites": {
    "57166": {
      "name": "Meteor M2-3",
      "tle_line1": "1 57166U 23091A   26127.83812969 -.00000007  00000+0  15969-4 0  9995",
      "tle_line2": "2 57166  98.6115 183.6356 0002808 294.3505  65.7380 14.24043334148779"
    },
    "59051": {
      "name": "Meteor M2-4",
      "tle_line1": "1 59051U 24039A   26127.87739407  .00000018  00000+0  27618-4 0  9997",
      "tle_line2": "2 59051  98.6992  87.6885 0005994 290.7594  69.2941 14.22425333113533"
    },
    "38771": {
      "name": "MetOp-B",
      "tle_line1": "1 38771U 12049A   26126.86974037  .00000093  00000+0  62517-4 0  9999",
      "tle_line2": "2 38771  98.6534 179.1868 0003578 103.7812 256.3764 14.21436428707392"
    },
    "43689": {
      "name": "MetOp-C",
      "tle_line1": "1 43689U 18087A   26127.80629000  .00000081  00000+0  56727-4 0  9996",
      "tle_line2": "2 43689  98.6667 188.1426 0000310  63.2779 296.8430 14.21500986389099"
    },
    "60543": {
      "name": "Arctic Weather Satellite",
      "tle_line1": "1 60543U 24149CD  26127.78773890  .00000668  00000+0  75197-4 0  9997",
      "tle_line2": "2 60543  97.6810 199.4046 0001153 198.3472 161.7704 14.89789190 93282"
    }
  }
}